[{"OBJECT_NAME":"2026-028A","OBJECT_ID":"2026-028A","EPOCH":"2026-03-05T07:50:47.616864","MEAN_MOTION":0.99523939,"ECCENTRICITY":0.0042016,"INCLINATION":0.4806,"RA_OF_ASC_NODE":289.7424,"ARG_OF_PERICENTER":229.1663,"MEAN_ANOMALY":201.2342,"EPHEMERIS_TYPE":0,"CLASSIFICATION_TYPE":"U","NORAD_CAT_ID":67756,"ELEMENT_SET_NO":999,"REV_AT_EPOCH":21,"BSTAR":0,"MEAN_MOTION_DOT":4.0e-8,"MEAN_MOTION_DDOT":0},{"OBJECT_NAME":"JAM-E JAM 1","OBJECT_ID":"2026-028B","EPOCH":"2026-03-06T14:07:26.036256","MEAN_MOTION":1.0026097,"ECCENTRICITY":0.00045148,"INCLINATION":0.5003,"RA_OF_ASC_NODE":285.7022,"ARG_OF_PERICENTER":129.9316,"MEAN_ANOMALY":355.2368,"EPHEMERIS_TYPE":0,"CLASSIFICATION_TYPE":"U","NORAD_CAT_ID":67757,"ELEMENT_SET_NO":999,"REV_AT_EPOCH":9,"BSTAR":0,"MEAN_MOTION_DOT":1.51e-6,"MEAN_MOTION_DDOT":0},{"OBJECT_NAME":"KUIPER-00159","OBJECT_ID":"2026-030A","EPOCH":"2026-03-07T06:56:58.151616","MEAN_MOTION":15.35687389,"ECCENTRICITY":0.00047285,"INCLINATION":51.8843,"RA_OF_ASC_NODE":230.7389,"ARG_OF_PERICENTER":35.2436,"MEAN_ANOMALY":324.8862,"EPHEMERIS_TYPE":0,"CLASSIFICATION_TYPE":"U","NORAD_CAT_ID":67764,"ELEMENT_SET_NO":999,"REV_AT_EPOCH":472,"BSTAR":0.0020259714,"MEAN_MOTION_DOT":0.00071707,"MEAN_MOTION_DDOT":0},{"OBJECT_NAME":"KUIPER-00160","OBJECT_ID":"2026-030B","EPOCH":"2026-03-07T06:58:59.841696","MEAN_MOTION":15.35515905,"ECCENTRICITY":0.00052558,"INCLINATION":51.8811,"RA_OF_ASC_NODE":230.74,"ARG_OF_PERICENTER":47.6609,"MEAN_ANOMALY":312.4821,"EPHEMERIS_TYPE":0,"CLASSIFICATION_TYPE":"U","NORAD_CAT_ID":67765,"ELEMENT_SET_NO":999,"REV_AT_EPOCH":472,"BSTAR":0.0022133805,"MEAN_MOTION_DOT":0.00078016,"MEAN_MOTION_DDOT":0},{"OBJECT_NAME":"KUIPER-00177","OBJECT_ID":"2026-030C","EPOCH":"2026-03-07T06:39:45.057312","MEAN_MOTION":15.36446564,"ECCENTRICITY":0.00011029,"INCLINATION":51.8825,"RA_OF_ASC_NODE":230.6591,"ARG_OF_PERICENTER":9.9942,"MEAN_ANOMALY":350.1067,"EPHEMERIS_TYPE":0,"CLASSIFICATION_TYPE":"U","NORAD_CAT_ID":67766,"ELEMENT_SET_NO":999,"REV_AT_EPOCH":472,"BSTAR":0.0013303146,"MEAN_MOTION_DOT":0.00047954,"MEAN_MOTION_DDOT":0},{"OBJECT_NAME":"KUIPER-00178","OBJECT_ID":"2026-030D","EPOCH":"2026-03-07T07:01:32.687616","MEAN_MOTION":15.35449525,"ECCENTRICITY":0.00069407,"INCLINATION":51.8837,"RA_OF_ASC_NODE":230.7564,"ARG_OF_PERICENTER":39.8439,"MEAN_ANOMALY":320.3055,"EPHEMERIS_TYPE":0,"CLASSIFICATION_TYPE":"U","NORAD_CAT_ID":67767,"ELEMENT_SET_NO":999,"REV_AT_EPOCH":472,"BSTAR":0.00141007,"MEAN_MOTION_DOT":0.00049282,"MEAN_MOTION_DDOT":0},{"OBJECT_NAME":"KUIPER-00180","OBJECT_ID":"2026-030E","EPOCH":"2026-03-07T06:17:38.653152","MEAN_MOTION":15.3192762,"ECCENTRICITY":0.0014021,"INCLINATION":51.8814,"RA_OF_ASC_NODE":231.2853,"ARG_OF_PERICENTER":61.9035,"MEAN_ANOMALY":298.3365,"EPHEMERIS_TYPE":0,"CLASSIFICATION_TYPE":"U","NORAD_CAT_ID":67768,"ELEMENT_SET_NO":999,"REV_AT_EPOCH":471,"BSTAR":0.0011384742,"MEAN_MOTION_DOT":0.00035514,"MEAN_MOTION_DDOT":0},{"OBJECT_NAME":"KUIPER-00197","OBJECT_ID":"2026-030F","EPOCH":"2026-03-07T06:43:03.797184","MEAN_MOTION":15.36325657,"ECCENTRICITY":0.00012874,"INCLINATION":51.8827,"RA_OF_ASC_NODE":230.6739,"ARG_OF_PERICENTER":46.4295,"MEAN_ANOMALY":313.6798,"EPHEMERIS_TYPE":0,"CLASSIFICATION_TYPE":"U","NORAD_CAT_ID":67769,"ELEMENT_SET_NO":999,"REV_AT_EPOCH":472,"BSTAR":0.0016030584,"MEAN_MOTION_DOT":0.00057714,"MEAN_MOTION_DDOT":0},{"OBJECT_NAME":"KUIPER-00198","OBJECT_ID":"2026-030G","EPOCH":"2026-03-07T06:50:42.109440","MEAN_MOTION":15.35972017,"ECCENTRICITY":0.00033183,"INCLINATION":51.8807,"RA_OF_ASC_NODE":230.7037,"ARG_OF_PERICENTER":32.0856,"MEAN_ANOMALY":328.0332,"EPHEMERIS_TYPE":0,"CLASSIFICATION_TYPE":"U","NORAD_CAT_ID":67770,"ELEMENT_SET_NO":999,"REV_AT_EPOCH":472,"BSTAR":0.0019052056,"MEAN_MOTION_DOT":0.00067986,"MEAN_MOTION_DDOT":0},{"OBJECT_NAME":"KUIPER-00199","OBJECT_ID":"2026-030H","EPOCH":"2026-03-07T05:51:13.599360","MEAN_MOTION":15.34276509,"ECCENTRICITY":0.0010441,"INCLINATION":51.8822,"RA_OF_ASC_NODE":231.1696,"ARG_OF_PERICENTER":52.9846,"MEAN_ANOMALY":307.2094,"EPHEMERIS_TYPE":0,"CLASSIFICATION_TYPE":"U","NORAD_CAT_ID":67771,"ELEMENT_SET_NO":999,"REV_AT_EPOCH":471,"BSTAR":0.001824462,"MEAN_MOTION_DOT":0.00061682,"MEAN_MOTION_DDOT":0},{"OBJECT_NAME":"KUIPER-00200","OBJECT_ID":"2026-030J","EPOCH":"2026-03-07T06:29:56.248224","MEAN_MOTION":15.36986307,"ECCENTRICITY":0.00012469,"INCLINATION":51.8802,"RA_OF_ASC_NODE":230.6116,"ARG_OF_PERICENTER":243.7082,"MEAN_ANOMALY":116.3777,"EPHEMERIS_TYPE":0,"CLASSIFICATION_TYPE":"U","NORAD_CAT_ID":67772,"ELEMENT_SET_NO":999,"REV_AT_EPOCH":472,"BSTAR":0.0017283006,"MEAN_MOTION_DOT":0.00063649,"MEAN_MOTION_DDOT":0},{"OBJECT_NAME":"KUIPER-00203","OBJECT_ID":"2026-030K","EPOCH":"2026-03-07T06:00:00.999648","MEAN_MOTION":15.19020148,"ECCENTRICITY":0.00112084,"INCLINATION":51.8841,"RA_OF_ASC_NODE":231.5468,"ARG_OF_PERICENTER":55.1394,"MEAN_ANOMALY":109.6882,"EPHEMERIS_TYPE":0,"CLASSIFICATION_TYPE":"U","NORAD_CAT_ID":67773,"ELEMENT_SET_NO":999,"REV_AT_EPOCH":327,"BSTAR":-0.067095129,"MEAN_MOTION_DOT":-0.01302002,"MEAN_MOTION_DDOT":0},{"OBJECT_NAME":"KUIPER-00205","OBJECT_ID":"2026-030L","EPOCH":"2026-03-07T06:44:09.718656","MEAN_MOTION":15.36312781,"ECCENTRICITY":0.00028721,"INCLINATION":51.8804,"RA_OF_ASC_NODE":230.6738,"ARG_OF_PERICENTER":11.4369,"MEAN_ANOMALY":348.6683,"EPHEMERIS_TYPE":0,"CLASSIFICATION_TYPE":"U","NORAD_CAT_ID":67774,"ELEMENT_SET_NO":999,"REV_AT_EPOCH":472,"BSTAR":0.0015841082,"MEAN_MOTION_DOT":0.00057002,"MEAN_MOTION_DDOT":0},{"OBJECT_NAME":"KUIPER-00208","OBJECT_ID":"2026-030M","EPOCH":"2026-03-07T06:13:05.860704","MEAN_MOTION":15.3236943,"ECCENTRICITY":0.00146205,"INCLINATION":51.8848,"RA_OF_ASC_NODE":231.2751,"ARG_OF_PERICENTER":52.726,"MEAN_ANOMALY":307.5056,"EPHEMERIS_TYPE":0,"CLASSIFICATION_TYPE":"U","NORAD_CAT_ID":67775,"ELEMENT_SET_NO":999,"REV_AT_EPOCH":471,"BSTAR":0.0015482411,"MEAN_MOTION_DOT":0.00049212,"MEAN_MOTION_DDOT":0},{"OBJECT_NAME":"KUIPER-00209","OBJECT_ID":"2026-030N","EPOCH":"2026-03-07T06:00:00.999648","MEAN_MOTION":15.30208963,"ECCENTRICITY":0.00131426,"INCLINATION":51.8829,"RA_OF_ASC_NODE":231.4008,"ARG_OF_PERICENTER":59.6534,"MEAN_ANOMALY":208.2216,"EPHEMERIS_TYPE":0,"CLASSIFICATION_TYPE":"U","NORAD_CAT_ID":67776,"ELEMENT_SET_NO":999,"REV_AT_EPOCH":410,"BSTAR":0.0019019359,"MEAN_MOTION_DOT":0.000566,"MEAN_MOTION_DDOT":0},{"OBJECT_NAME":"KUIPER-00213","OBJECT_ID":"2026-030P","EPOCH":"2026-03-07T06:13:35.809536","MEAN_MOTION":15.32666916,"ECCENTRICITY":0.00149944,"INCLINATION":51.8812,"RA_OF_ASC_NODE":231.267,"ARG_OF_PERICENTER":57.8278,"MEAN_ANOMALY":302.4159,"EPHEMERIS_TYPE":0,"CLASSIFICATION_TYPE":"U","NORAD_CAT_ID":67777,"ELEMENT_SET_NO":999,"REV_AT_EPOCH":471,"BSTAR":0.0012905587,"MEAN_MOTION_DOT":0.0004131,"MEAN_MOTION_DDOT":0},{"OBJECT_NAME":"KUIPER-00214","OBJECT_ID":"2026-030Q","EPOCH":"2026-03-07T06:34:20.506080","MEAN_MOTION":15.36672371,"ECCENTRICITY":6.491e-5,"INCLINATION":51.8838,"RA_OF_ASC_NODE":230.6378,"ARG_OF_PERICENTER":262.668,"MEAN_ANOMALY":97.4233,"EPHEMERIS_TYPE":0,"CLASSIFICATION_TYPE":"U","NORAD_CAT_ID":67778,"ELEMENT_SET_NO":999,"REV_AT_EPOCH":472,"BSTAR":0.0020555543,"MEAN_MOTION_DOT":0.00075123,"MEAN_MOTION_DDOT":0}]
