2026-028A               
1 67756U 26028A   26064.32694001  .00000004  00000+0  00000+0 0  9994
2 67756   0.4806 289.7424 0042016 229.1663 201.2342  0.99523939   215
JAM-E JAM 1             
1 67757U 26028B   26065.58849579  .00000151  00000+0  00000+0 0  9999
2 67757   0.5003 285.7022 0004514 129.9316 355.2368  1.00260970    99
KUIPER-00159            
1 67764U 26030A   26066.28956194  .00071707  00000+0  20260-2 0  9998
2 67764  51.8843 230.7389 0004728  35.2436 324.8862 15.35687389  4728
KUIPER-00160            
1 67765U 26030B   26066.29097039  .00078016  00000+0  22134-2 0  9996
2 67765  51.8811 230.7400 0005255  47.6609 312.4821 15.35515905  4725
KUIPER-00177            
1 67766U 26030C   26066.27760483  .00047954  00000+0  13303-2 0  9990
2 67766  51.8825 230.6591 0001102   9.9942 350.1067 15.36446564  4725
KUIPER-00178            
1 67767U 26030D   26066.29273944  .00049282  00000+0  14101-2 0  9997
2 67767  51.8837 230.7564 0006940  39.8439 320.3055 15.35449525  4723
KUIPER-00180            
1 67768U 26030E   26066.26225293  .00035514  00000+0  11385-2 0  9993
2 67768  51.8814 231.2853 0014021  61.9035 298.3365 15.31927620  4713
KUIPER-00197            
1 67769U 26030F   26066.27990506  .00057714  00000+0  16031-2 0  9990
2 67769  51.8827 230.6739 0001287  46.4295 313.6798 15.36325657  4729
KUIPER-00198            
1 67770U 26030G   26066.28520960  .00067986  00000+0  19052-2 0  9994
2 67770  51.8807 230.7037 0003318  32.0856 328.0332 15.35972017  4723
KUIPER-00199            
1 67771U 26030H   26066.24390740  .00061682  00000+0  18245-2 0  9992
2 67771  51.8822 231.1696 0010441  52.9846 307.2094 15.34276509  4717
KUIPER-00200            
1 67772U 26030J   26066.27078991  .00063649  00000+0  17283-2 0  9993
2 67772  51.8802 230.6116 0001246 243.7082 116.3777 15.36986307  4726
KUIPER-00203            
1 67773U 26030K   26066.25001157 -.01302002  00000+0 -67095-1 0  9999
2 67773  51.8841 231.5468 0011208  55.1394 109.6882 15.19020148  3274
KUIPER-00205            
1 67774U 26030L   26066.28066804  .00057002  00000+0  15841-2 0  9990
2 67774  51.8804 230.6738 0002872  11.4369 348.6683 15.36312781  4729
KUIPER-00208            
1 67775U 26030M   26066.25909561  .00049212  00000+0  15482-2 0  9999
2 67775  51.8848 231.2751 0014620  52.7260 307.5056 15.32369430  4718
KUIPER-00209            
1 67776U 26030N   26066.25001157  .00056600  00000+0  19019-2 0  9993
2 67776  51.8829 231.4008 0013142  59.6534 208.2216 15.30208963  4102
KUIPER-00213            
1 67777U 26030P   26066.25944224  .00041310  00000+0  12906-2 0  9995
2 67777  51.8812 231.2670 0014994  57.8278 302.4159 15.32666916  4717
KUIPER-00214            
1 67778U 26030Q   26066.27384845  .00075123  00000+0  20556-2 0  9994
2 67778  51.8838 230.6378 0000649 262.6680  97.4233 15.36672371  4720
